{
  "norad_id": 65866,
  "name": "STARLINK-35312",
  "history": [
    {
      "epoch": "2026-03-28T16:56:28.647168Z",
      "apogee_km": 475.92094160051147,
      "perigee_km": 474.4043063937206,
      "latitude_deg": -4.097092309620332e-05,
      "longitude_deg": 125.84991632907101,
      "height_km": 475.9278911216921,
      "semi_major_axis_km": 6853.299623997115,
      "eccentricity": 0.00011065,
      "inclination_deg": 53.1587,
      "raan_deg": 206.0918,
      "arg_perigee_deg": 79.9042,
      "mean_anomaly_deg": 280.2083,
      "mean_motion_rev_day": 15.30217565
    },
    {
      "epoch": "2026-03-29T00:46:44.849856Z",
      "apogee_km": 476.3019925821136,
      "perigee_km": 474.0869958431849,
      "latitude_deg": 3.3998610530204e-05,
      "longitude_deg": 6.441772480672385,
      "height_km": 475.9620072030249,
      "semi_major_axis_km": 6853.331494212649,
      "eccentricity": 0.0001616,
      "inclination_deg": 53.1592,
      "raan_deg": 204.573,
      "arg_perigee_deg": 83.2585,
      "mean_anomaly_deg": 276.86,
      "mean_motion_rev_day": 15.30206891
    },
    {
      "epoch": "2026-03-29T00:46:44.850720Z",
      "apogee_km": 476.30192404879926,
      "perigee_km": 474.08706437649926,
      "latitude_deg": 3.491481667479127e-05,
      "longitude_deg": 6.441769553448324,
      "height_km": 475.9620152480657,
      "semi_major_axis_km": 6853.331494212649,
      "eccentricity": 0.00016159,
      "inclination_deg": 53.1592,
      "raan_deg": 204.573,
      "arg_perigee_deg": 83.2585,
      "mean_anomaly_deg": 276.86,
      "mean_motion_rev_day": 15.30206891
    },
    {
      "epoch": "2026-03-30T14:24:01.499904Z",
      "apogee_km": 476.0538175007305,
      "perigee_km": 474.4414902270619,
      "latitude_deg": -3.788003762068069e-05,
      "longitude_deg": 153.29769336248913,
      "height_km": 476.04803826034674,
      "semi_major_axis_km": 6853.384653863895,
      "eccentricity": 0.00011763,
      "inclination_deg": 53.1584,
      "raan_deg": 197.2934,
      "arg_perigee_deg": 83.0419,
      "mean_anomaly_deg": 277.0715,
      "mean_motion_rev_day": 15.30189087
    },
    {
      "epoch": "2026-03-31T13:54:49.639680Z",
      "apogee_km": 475.7101689941628,
      "perigee_km": 474.7411035173973,
      "latitude_deg": 4.91906651818898e-05,
      "longitude_deg": 155.07841723182318,
      "height_km": 476.168772163449,
      "semi_major_axis_km": 6853.36263625578,
      "eccentricity": 7.07e-05,
      "inclination_deg": 53.1588,
      "raan_deg": 192.7403,
      "arg_perigee_deg": 95.263,
      "mean_anomaly_deg": 264.8452,
      "mean_motion_rev_day": 15.30196461
    },
    {
      "epoch": "2026-04-01T13:25:37.834752Z",
      "apogee_km": 476.0271794737928,
      "perigee_km": 474.4413093678322,
      "latitude_deg": -7.537370920820318e-06,
      "longitude_deg": 156.86300293249744,
      "height_km": 476.4074314531093,
      "semi_major_axis_km": 6853.371244420812,
      "eccentricity": 0.0001157,
      "inclination_deg": 53.1571,
      "raan_deg": 188.1914,
      "arg_perigee_deg": 110.3063,
      "mean_anomaly_deg": 249.8062,
      "mean_motion_rev_day": 15.30193578
    },
    {
      "epoch": "2026-04-02T16:04:31.819872Z",
      "apogee_km": 476.1599784949003,
      "perigee_km": 474.25529695318437,
      "latitude_deg": -1.3195963127267775e-05,
      "longitude_deg": 110.88555373430222,
      "height_km": 476.2467778381322,
      "semi_major_axis_km": 6853.3446377240425,
      "eccentricity": 0.00013896,
      "inclination_deg": 53.1555,
      "raan_deg": 183.0333,
      "arg_perigee_deg": 98.5564,
      "mean_anomaly_deg": 261.5594,
      "mean_motion_rev_day": 15.30202489
    },
    {
      "epoch": "2026-04-03T12:27:13.356576Z",
      "apogee_km": 476.13501798439756,
      "perigee_km": 474.6491728765086,
      "latitude_deg": -6.120745202121878e-05,
      "longitude_deg": 160.4315454270762,
      "height_km": 475.98406309653905,
      "semi_major_axis_km": 6853.529095430453,
      "eccentricity": 0.0001084,
      "inclination_deg": 53.158,
      "raan_deg": 179.0893,
      "arg_perigee_deg": 65.6541,
      "mean_anomaly_deg": 294.4572,
      "mean_motion_rev_day": 15.30140713
    },
    {
      "epoch": "2026-04-04T15:06:07.778880Z",
      "apogee_km": 475.8183345254183,
      "perigee_km": 474.4216407513377,
      "latitude_deg": -1.6325572263652132e-05,
      "longitude_deg": 114.45350565432479,
      "height_km": 475.9166971444983,
      "semi_major_axis_km": 6853.256987638378,
      "eccentricity": 0.0001019,
      "inclination_deg": 53.1573,
      "raan_deg": 173.9324,
      "arg_perigee_deg": 81.6473,
      "mean_anomaly_deg": 278.4643,
      "mean_motion_rev_day": 15.30231845
    },
    {
      "epoch": "2026-04-05T11:28:50.570112Z",
      "apogee_km": 476.11928628149144,
      "perigee_km": 474.43718404617175,
      "latitude_deg": -5.4871400735747026e-05,
      "longitude_deg": 163.99386148690988,
      "height_km": 475.96345524940887,
      "semi_major_axis_km": 6853.415235163831,
      "eccentricity": 0.00012272,
      "inclination_deg": 53.1579,
      "raan_deg": 169.988,
      "arg_perigee_deg": 75.3477,
      "mean_anomaly_deg": 284.7659,
      "mean_motion_rev_day": 15.30178845
    },
    {
      "epoch": "2026-04-06T04:43:25.663584Z",
      "apogee_km": 476.03242460340516,
      "perigee_km": 474.33759807000206,
      "latitude_deg": 2.9173361472078564e-05,
      "longitude_deg": -98.69884830992011,
      "height_km": 475.7603812710371,
      "semi_major_axis_km": 6853.322011336703,
      "eccentricity": 0.00012365,
      "inclination_deg": 53.1588,
      "raan_deg": 166.6496,
      "arg_perigee_deg": 67.6124,
      "mean_anomaly_deg": 292.5008,
      "mean_motion_rev_day": 15.30210067
    },
    {
      "epoch": "2026-04-07T10:30:25.510464Z",
      "apogee_km": 476.2033965449382,
      "perigee_km": 474.00501383113715,
      "latitude_deg": 3.322334298693026e-05,
      "longitude_deg": 167.56673314028643,
      "height_km": 475.2504092614796,
      "semi_major_axis_km": 6853.241205188037,
      "eccentricity": 0.00016039,
      "inclination_deg": 53.1594,
      "raan_deg": 160.8877,
      "arg_perigee_deg": 46.8344,
      "mean_anomaly_deg": 313.2791,
      "mean_motion_rev_day": 15.30237131
    },
    {
      "epoch": "2026-04-08T13:09:19.861920Z",
      "apogee_km": 476.1688514206289,
      "perigee_km": 474.2075668122843,
      "latitude_deg": -2.4613449594015445e-05,
      "longitude_deg": 121.5869101361497,
      "height_km": 475.7966837575349,
      "semi_major_axis_km": 6853.325209116457,
      "eccentricity": 0.00014309,
      "inclination_deg": 53.1594,
      "raan_deg": 155.7288,
      "arg_perigee_deg": 72.8348,
      "mean_anomaly_deg": 287.2809,
      "mean_motion_rev_day": 15.30208996
    },
    {
      "epoch": "2026-04-09T11:06:04.326912Z",
      "apogee_km": 475.90234892650915,
      "perigee_km": 474.50974961889733,
      "latitude_deg": -1.5574566291082776e-05,
      "longitude_deg": 147.25086608398945,
      "height_km": 476.1941197718452,
      "semi_major_axis_km": 6853.343049272703,
      "eccentricity": 0.0001016,
      "inclination_deg": 53.1595,
      "raan_deg": 151.4793,
      "arg_perigee_deg": 97.401,
      "mean_anomaly_deg": 262.7106,
      "mean_motion_rev_day": 15.30203021
    },
    {
      "epoch": "2026-04-10T12:10:55.565184Z",
      "apogee_km": 476.0791994557321,
      "perigee_km": 474.3590070738128,
      "latitude_deg": -3.799346389757192e-05,
      "longitude_deg": 125.15711786350658,
      "height_km": 475.8525048635048,
      "semi_major_axis_km": 6853.356103264772,
      "eccentricity": 0.0001255,
      "inclination_deg": 53.1591,
      "raan_deg": 146.6291,
      "arg_perigee_deg": 72.0766,
      "mean_anomaly_deg": 288.0371,
      "mean_motion_rev_day": 15.30198649
    },
    {
      "epoch": "2026-04-11T19:32:00.051072Z",
      "apogee_km": 476.2161763181675,
      "perigee_km": 474.31641292489803,
      "latitude_deg": -1.0584757572339146e-05,
      "longitude_deg": 7.531594717793594,
      "height_km": 476.099663371803,
      "semi_major_axis_km": 6853.403294621532,
      "eccentricity": 0.0001386,
      "inclination_deg": 53.1582,
      "raan_deg": 140.5598,
      "arg_perigee_deg": 86.1153,
      "mean_anomaly_deg": 274.0006,
      "mean_motion_rev_day": 15.30182844
    },
    {
      "epoch": "2026-04-13T06:01:10.846272Z",
      "apogee_km": 476.1132098719145,
      "perigee_km": 474.330377115376,
      "latitude_deg": 2.8362264921276123e-05,
      "longitude_deg": -157.85266024425815,
      "height_km": 476.15370312574896,
      "semi_major_axis_km": 6853.358793493645,
      "eccentricity": 0.00013007,
      "inclination_deg": 53.1584,
      "raan_deg": 133.8868,
      "arg_perigee_deg": 92.1893,
      "mean_anomaly_deg": 267.9257,
      "mean_motion_rev_day": 15.30197748
    },
    {
      "epoch": "2026-04-14T18:04:23.621952Z",
      "apogee_km": 475.9460914724559,
      "perigee_km": 474.4191718585216,
      "latitude_deg": -2.1799882423625075e-05,
      "longitude_deg": 12.883505321911986,
      "height_km": 475.91515053270626,
      "semi_major_axis_km": 6853.3196316654885,
      "eccentricity": 0.0001114,
      "inclination_deg": 53.1579,
      "raan_deg": 126.9069,
      "arg_perigee_deg": 77.4734,
      "mean_anomaly_deg": 282.6391,
      "mean_motion_rev_day": 15.30210864
    },
    {
      "epoch": "2026-04-15T08:10:52.070880Z",
      "apogee_km": 475.9583338491457,
      "perigee_km": 474.45566964332284,
      "latitude_deg": -4.481367324193906e-05,
      "longitude_deg": 157.9554610615342,
      "height_km": 475.9496804824747,
      "semi_major_axis_km": 6853.3440017462335,
      "eccentricity": 0.00010963,
      "inclination_deg": 53.1573,
      "raan_deg": 124.1768,
      "arg_perigee_deg": 78.0644,
      "mean_anomaly_deg": 282.0479,
      "mean_motion_rev_day": 15.30202702
    }
  ]
}